HORYU-4                 
1 41340U 16012D   20005.15969256  .00000383  00000-0  22296-4 0  9991
2 41340  31.0055 297.9822 0013895 317.5150  42.4410 15.01388818213166
E-ST@R-II               
1 41459U 16025D   20005.37086456  .00000117  00000-0  10319-4 0  9990
2 41459  98.0986 106.9873 0167357  44.0761 317.3661 15.05953689202743
AAUSAT 4                
1 41460U 16025E   20005.54850383  .00001577  00000-0  81351-4 0  9994
2 41460  98.0972 108.9607 0156362  34.2882 326.8304 15.08058149202936
DIWATA-1                
1 41463U 98067HT  20005.33790716  .00063792  12843-4  16972-3 0  9998
2 41463  51.6261 276.7203 0002687 134.0341 328.6566 15.94863031211636
BEESAT-4                
1 41619U 16040W   20005.12507904  .00001046  00000-0  46577-4 0  9991
2 41619  97.3437  68.3772 0012267  45.2557 314.9676 15.23585214184370
CANX-7                  
1 41788U 16059F   20005.25297433  .00007087  00000-0  10254-2 0  9997
2 41788  98.2511  89.2830 0029207 108.9379 251.4998 14.76166109175577
RAVAN                   
1 41849U 16067B   20005.54257884 -.00000048  00000-0  11589-5 0  9998
2 41849  97.9256 112.7517 0009087  72.2091 288.0122 14.98410685172071
CELTEE 1                
1 41850U 16067C   20005.52434387 -.00000263  00000-0 -17466-4 0  9992
2 41850  97.9222 110.9234 0010266  76.4379 283.7985 14.97106127171977
OPTICUBE 04             
1 41851U 16067D   20004.82622847  .00000408  00000-0  40824-4 0  9998
2 41851  97.9203 109.9183 0010295  81.9586 278.2803 14.96867123171855
AEROCUBE 8D             
1 41852U 16067E   20004.83874760  .00000690  00000-0  65470-4 0  9990
2 41852  97.9218 109.7590 0011274  81.5880 278.6618 14.96820209171833
AEROCUBE 8C             
1 41853U 16067F   20005.53491887 -.00000282  00000-0 -19295-4 0  9997
2 41853  97.9212 110.3841 0011166  79.3143 280.9335 14.96782351171930
PROMETHEUS 2-1          
1 41854U 16067G   20004.80159364 -.00000206  00000-0 -12578-4 0  9991
2 41854  97.9220 109.8730 0011402  80.8409 279.4102 14.97052341171839
PROMETHEUS 2-3          
1 41855U 16067H   20004.86993373 -.00000118  00000-0 -49394-5 0  9993
2 41855  97.9222 109.9667 0011544  81.0186 279.2341 14.97060732171841
INS-1B                  
1 41954U 17008G   20005.13044149  .00001007  00000-0  43951-4 0  9996
2 41954  97.3772  72.3172 0009910 151.6417 208.5362 15.24380122160333
BGUSAT                  
1 41999U 17008BD  20004.74811456  .00001686  00000-0  66705-4 0  9999
2 41999  97.3866  75.2196 0008594 162.1594 197.9948 15.26829998159817
DIDO-2                  
1 42000U 17008BE  20004.73955098  .00000662  00000-0  30036-4 0  9994
2 42000  97.3783  72.4783 0008723 169.5091 190.6330 15.24205956159676
PEASSS                  
1 42015U 17008BV  20004.90026900  .00000863  00000-0  37151-4 0  9998
2 42015  97.3799  73.9241 0006531 170.0364 190.1005 15.25252417160265
AL-FARABI 1             
1 42016U 17008BW  20004.94100420  .00001177  00000-0  48576-4 0  9995
2 42016  97.3821  74.7563 0006436 168.6739 191.4645 15.25991806160436
NAYIF-1 (EO-88)         
1 42017U 17008BX  20005.18619648  .00001208  00000-0  49739-4 0  9997
2 42017  97.3817  75.0101 0006460 167.8911 192.2484 15.26029758160499
NSIGHT                  
1 42726U 98067MF  20005.39343828  .00062720  00000-0  28337-3 0  9991
2 42726  51.6317 354.8622 0000724 214.1611 145.9345 15.83380546149474
UCLSAT                  
1 42765U 17036A   20004.87282378  .00000936  00000-0  42515-4 0  9991
2 42765  97.3259  63.3435 0009918 241.5615 118.4623 15.23146820141526
LITUANICASAT-2          
1 42768U 17036D   20005.15803746  .00001645  00000-0  71819-4 0  9991
2 42768  97.3304  63.3789 0013674 230.6064 129.3963 15.23449142140826
AALTO-1                 
1 42775U 17036L   20004.92799153  .00000584  00000-0  28851-4 0  9998
2 42775  97.3238  61.6589 0012571 233.3831 126.6250 15.21599895140655
URSA MAIOR              
1 42776U 17036M   20005.13292664  .00000647  00000-0  31530-4 0  9996
2 42776  97.3249  62.0763 0012413 232.3625 127.6485 15.21757526140694
COMPASS 2               
1 42777U 17036N   20005.17104711  .00001364  00000-0  60140-4 0  9992
2 42777  97.3298  63.8518 0011149 230.9529 129.0717 15.23423715140784
DIAMOND RED             
1 42783U 17036U   20005.38790396  .00000842  00000-0  39252-4 0  9992
2 42783  97.3259  63.2744 0010624 241.4919 118.5249 15.22529117140785
PEGASUS                 
1 42784U 17036V   20004.86587388  .00000864  00000-0  39817-4 0  9991
2 42784  97.3264  63.0891 0010478 242.6818 117.3352 15.22865266140725
DIAMOND GREEN           
1 42785U 17036W   20005.18957243  .00000834  00000-0  38916-4 0  9995
2 42785  97.3262  63.1111 0010505 242.9852 117.0312 15.22529624140742
DIAMOND BLUE            
1 42786U 17036X   20004.72869002  .00000717  00000-0  33840-4 0  9991
2 42786  97.3262  62.6587 0010323 245.0352 114.9813 15.22527324140670
NUDTSAT                 
1 42787U 17036Y   20005.12071025  .00001327  00000-0  57599-4 0  9992
2 42787  97.3300  64.3809 0009690 244.5388 115.4846 15.24011707140664
SUCHAI                  
1 42788U 17036Z   20004.88018907  .00001025  00000-0  46026-4 0  9993
2 42788  97.3270  63.5490 0010063 240.9852 119.0377 15.23348598140827
SKCUBE                  
1 42789U 17036AA  20004.84508436  .00000954  00000-0  43211-4 0  9994
2 42789  97.3266  63.4134 0009925 241.2936 118.7304 15.23219295140736
VZLUSAT-1               
1 42790U 17036AB  20004.84587445  .00001298  00000-0  56427-4 0  9998
2 42790  97.3286  64.1085 0009507 239.2334 120.7968 15.23996832140770
ROBUSTA-1B              
1 42792U 17036AD  20004.88449025  .00000984  00000-0  44225-4 0  9999
2 42792  97.3267  63.6537 0009509 241.5701 118.4578 15.23398898140761
CICERO 6                
1 42793U 17036AE  20005.46454052  .00000710  00000-0  33232-4 0  9994
2 42793  97.3246  63.8200 0008781 241.4608 118.5746 15.22869466140901
D-SAT                   
1 42794U 17036AF  20005.38262533  .00000355  00000-0  36149-4 0  9992
2 42794  97.5152  45.9738 0126101 191.8486 167.9761 14.91196574138243
CORVUS BC2              
1 42846U 17042X   20004.93680919 -.00000059  00000-0 -54953-6 0  9997
2 42846  97.5439 255.6757 0011095 104.7315 255.5135 14.92044678134871
CORVUS BC1              
1 42847U 17042Y   20005.14481145 -.00000040  00000-0  12948-5 0  9998
2 42847  97.5442 256.0151 0010754 103.3998 256.8421 14.92145416134900
MIRATA                  
1 43015U 17073C   20005.05846604  .00000491  00000-0  44044-4 0  9995
2 43015  97.7225 283.5129 0253119 224.5176 133.5454 14.79346076114913
MAKERSAT 0              
1 43016U 17073D   20005.31461674  .00000362  00000-0  34041-4 0  9998
2 43016  97.7260 283.9598 0255630 224.3557 133.6926 14.78999626114939
ASTERIA                 
1 43020U 98067NH  20005.44454905  .00063962  00000-0  29920-3 0  9992
2 43020  51.6410   6.8453 0001667 100.0971 260.0220 15.82632238121503
DELLINGR (RBLE)         
1 43021U 98067NJ  20005.45107786  .00011322  00000-0  11103-3 0  9993
2 43021  51.6381  35.3480 0001890 127.1930 232.9239 15.66619077121125
AEROCUBE 7B (OCSD B)    
1 43042U 17071F   20004.86186088  .00003145  00000-0  81030-4 0  9999
2 43042  51.6367 153.4815 0004892 158.2919 201.8275 15.42397655116963
AEROCUBE 7C (OCSD C)    
1 43043U 17071G   20004.86269981  .00003195  00000-0  82238-4 0  9990
2 43043  51.6367 153.5018 0005086 162.5517 197.5644 15.42376138116939
CHEFSAT                 
1 43044U 17071H   20005.10510866  .00007030  00000-0  15020-3 0  9996
2 43044  51.6377 142.5677 0004855 166.0999 194.0123 15.46002371117109
ASGARDIA 1              
1 43049U 17071N   20005.12315815  .00003105  00000-0  79891-4 0  9996
2 43049  51.6380 151.5438 0002537 172.2439 187.8587 15.42485157116977
ISARA                   
1 43050U 17071P   20004.93326459  .00006122  00000-0  13502-3 0  9990
2 43050  51.6360 145.0913 0002489 171.3037 188.7994 15.45315350117055
PROPCUBE 2 (FAUNA)      
1 43052U 17071R   20004.82891047  .00003190  00000-0  80862-4 0  9996
2 43052  51.6377 151.8480 0002540 167.5315 192.5734 15.42843686116940
CORVUS BC3              
1 43118U 18004H   20005.46084072  .00000655  00000-0  30778-4 0  9993
2 43118  97.4650  76.9213 0008753 267.5259  92.4976 15.23115400110031
MICROMAS-2A             
1 43131U 18004W   20005.47742322  .00001633  00000-0  68911-4 0  9995
2 43131  97.4687  78.1391 0007675 267.2036  92.8323 15.24712850110100
SPACEBEE-4              
1 43139U 18004AE  20004.85018705  .00001926  00000-0  78296-4 0  9997
2 43139  97.4711  78.3351 0007057 271.3473  88.6957 15.25773743110058
SPACEBEE-3              
1 43140U 18004AF  20004.88077350  .00002593  00000-0  10221-3 0  9997
2 43140  97.4725  78.8203 0006790 269.0746  90.9714 15.26480582110083
SPACEBEE-2              
1 43141U 18004AG  20005.15192013  .00002814  00000-0  10991-3 0  9993
2 43141  97.4736  79.2552 0006810 267.1849  92.8610 15.26721912110131
SPACEBEE-1              
1 43142U 18004AH  20004.89134140  .00002923  00000-0  11312-3 0  9990
2 43142  97.4738  79.1689 0006802 268.1458  91.9001 15.26996193110096
CICERO 7                
1 43143U 18004AJ  20004.82962281  .00001306  00000-0  55569-4 0  9996
2 43143  97.4670  77.7004 0005871 282.0703  77.9877 15.24804009110020
GOMX-4B                 
1 43196U 18015E   20005.48634655  .00000232  00000-0  12507-4 0  9992
2 43196  97.4163 135.5532 0017995 325.8145  34.1932 15.24104977106928
GOMX-4A                 
1 43197U 18015F   20005.53146130  .00000552  00000-0  25514-4 0  9992
2 43197  97.4151 135.6441 0018275 326.3221 101.8610 15.24257358106948
1KUNS-PF                
1 43466U 98067NP  20005.44282999  .00044775  00000-0  28164-3 0  9998
2 43466  51.6349  29.1591 0001239  41.4286 318.6808 15.76240570 94464
UBAKUSAT                
1 43467U 98067NQ  20005.35477695  .00019296  00000-0  17488-3 0  9995
2 43467  51.6361  41.3960 0001916  91.8658 268.2558 15.68061964 94303
